[{"OBJECT_NAME":"STARLINK-36385","OBJECT_ID":"2026-025AA","EPOCH":"2026-03-02T13:18:47.420064","MEAN_MOTION":15.809103,"ECCENTRICITY":0.0002486,"INCLINATION":97.287,"RA_OF_ASC_NODE":172.8801,"ARG_OF_PERICENTER":106.3663,"MEAN_ANOMALY":253.7879,"EPHEMERIS_TYPE":0,"CLASSIFICATION_TYPE":"U","NORAD_CAT_ID":67717,"ELEMENT_SET_NO":999,"REV_AT_EPOCH":482,"BSTAR":0.0011679,"MEAN_MOTION_DOT":0.00230579,"MEAN_MOTION_DDOT":0},{"OBJECT_NAME":"CZ-2F DEB","OBJECT_ID":"2026-024E","EPOCH":"2026-02-27T12:10:33.167712","MEAN_MOTION":15.20915897,"ECCENTRICITY":0.02465096,"INCLINATION":50.3169,"RA_OF_ASC_NODE":68.583,"ARG_OF_PERICENTER":240.0171,"MEAN_ANOMALY":117.6115,"EPHEMERIS_TYPE":0,"CLASSIFICATION_TYPE":"U","NORAD_CAT_ID":67718,"ELEMENT_SET_NO":999,"REV_AT_EPOCH":308,"BSTAR":0.0035886422,"MEAN_MOTION_DOT":0.00191604,"MEAN_MOTION_DDOT":0},{"OBJECT_NAME":"CZ-2F DEB","OBJECT_ID":"2026-024F","EPOCH":"2026-03-03T03:56:37.871808","MEAN_MOTION":15.01530846,"ECCENTRICITY":0.0318223,"INCLINATION":49.7919,"RA_OF_ASC_NODE":53.3018,"ARG_OF_PERICENTER":245.3163,"MEAN_ANOMALY":111.4339,"EPHEMERIS_TYPE":0,"CLASSIFICATION_TYPE":"U","NORAD_CAT_ID":67719,"ELEMENT_SET_NO":999,"REV_AT_EPOCH":326,"BSTAR":0.0038809,"MEAN_MOTION_DOT":0.00159571,"MEAN_MOTION_DDOT":0},{"OBJECT_NAME":"CZ-2F DEB","OBJECT_ID":"2026-024G","EPOCH":"2026-03-03T03:22:04.503360","MEAN_MOTION":14.98844134,"ECCENTRICITY":0.032903,"INCLINATION":49.8312,"RA_OF_ASC_NODE":53.9297,"ARG_OF_PERICENTER":241.426,"MEAN_ANOMALY":115.3206,"EPHEMERIS_TYPE":0,"CLASSIFICATION_TYPE":"U","NORAD_CAT_ID":67720,"ELEMENT_SET_NO":999,"REV_AT_EPOCH":357,"BSTAR":0.0037028,"MEAN_MOTION_DOT":0.0014806,"MEAN_MOTION_DDOT":0},{"OBJECT_NAME":"STARLINK-36772","OBJECT_ID":"2026-026A","EPOCH":"2026-03-03T04:06:19.324800","MEAN_MOTION":15.74192121,"ECCENTRICITY":0.0001438,"INCLINATION":97.2839,"RA_OF_ASC_NODE":116.51,"ARG_OF_PERICENTER":94.0415,"MEAN_ANOMALY":266.1015,"EPHEMERIS_TYPE":0,"CLASSIFICATION_TYPE":"U","NORAD_CAT_ID":67721,"ELEMENT_SET_NO":999,"REV_AT_EPOCH":310,"BSTAR":-0.006234,"MEAN_MOTION_DOT":-0.00810584,"MEAN_MOTION_DDOT":0},{"OBJECT_NAME":"STARLINK-36796","OBJECT_ID":"2026-026B","EPOCH":"2026-03-03T04:00:01.999584","MEAN_MOTION":15.72892275,"ECCENTRICITY":0.000146,"INCLINATION":97.2838,"RA_OF_ASC_NODE":116.5085,"ARG_OF_PERICENTER":71.1221,"MEAN_ANOMALY":266.3504,"EPHEMERIS_TYPE":0,"CLASSIFICATION_TYPE":"U","NORAD_CAT_ID":67722,"ELEMENT_SET_NO":999,"REV_AT_EPOCH":426,"BSTAR":-0.016407,"MEAN_MOTION_DOT":-0.0192573,"MEAN_MOTION_DDOT":0},{"OBJECT_NAME":"STARLINK-36369","OBJECT_ID":"2026-026C","EPOCH":"2026-03-03T04:00:01.999584","MEAN_MOTION":15.7329555,"ECCENTRICITY":0.0001539,"INCLINATION":97.2836,"RA_OF_ASC_NODE":116.512,"ARG_OF_PERICENTER":61.2839,"MEAN_ANOMALY":284.6861,"EPHEMERIS_TYPE":0,"CLASSIFICATION_TYPE":"U","NORAD_CAT_ID":67723,"ELEMENT_SET_NO":999,"REV_AT_EPOCH":426,"BSTAR":-0.016158,"MEAN_MOTION_DOT":-0.01929214,"MEAN_MOTION_DDOT":0},{"OBJECT_NAME":"STARLINK-36752","OBJECT_ID":"2026-026D","EPOCH":"2026-03-03T04:00:01.999584","MEAN_MOTION":15.74590253,"ECCENTRICITY":0.0001548,"INCLINATION":97.2837,"RA_OF_ASC_NODE":116.5192,"ARG_OF_PERICENTER":65.2014,"MEAN_ANOMALY":296.0376,"EPHEMERIS_TYPE":0,"CLASSIFICATION_TYPE":"U","NORAD_CAT_ID":67724,"ELEMENT_SET_NO":999,"REV_AT_EPOCH":426,"BSTAR":-0.01532,"MEAN_MOTION_DOT":-0.01934096,"MEAN_MOTION_DDOT":0},{"OBJECT_NAME":"STARLINK-36754","OBJECT_ID":"2026-026E","EPOCH":"2026-03-03T04:00:01.999584","MEAN_MOTION":15.72001695,"ECCENTRICITY":0.0001506,"INCLINATION":97.2835,"RA_OF_ASC_NODE":116.5141,"ARG_OF_PERICENTER":65.0278,"MEAN_ANOMALY":285.5615,"EPHEMERIS_TYPE":0,"CLASSIFICATION_TYPE":"U","NORAD_CAT_ID":67725,"ELEMENT_SET_NO":999,"REV_AT_EPOCH":426,"BSTAR":-0.017055,"MEAN_MOTION_DOT":-0.0192688,"MEAN_MOTION_DDOT":0},{"OBJECT_NAME":"STARLINK-36755","OBJECT_ID":"2026-026F","EPOCH":"2026-03-03T04:00:01.999584","MEAN_MOTION":15.69554237,"ECCENTRICITY":0.000148,"INCLINATION":97.2835,"RA_OF_ASC_NODE":116.5085,"ARG_OF_PERICENTER":65.9842,"MEAN_ANOMALY":271.1998,"EPHEMERIS_TYPE":0,"CLASSIFICATION_TYPE":"U","NORAD_CAT_ID":67726,"ELEMENT_SET_NO":999,"REV_AT_EPOCH":426,"BSTAR":-0.018901,"MEAN_MOTION_DOT":-0.01966291,"MEAN_MOTION_DDOT":0},{"OBJECT_NAME":"STARLINK-36741","OBJECT_ID":"2026-026G","EPOCH":"2026-03-03T04:00:01.999584","MEAN_MOTION":15.70683158,"ECCENTRICITY":0.0001524,"INCLINATION":97.2834,"RA_OF_ASC_NODE":116.5151,"ARG_OF_PERICENTER":61.6116,"MEAN_ANOMALY":290.8279,"EPHEMERIS_TYPE":0,"CLASSIFICATION_TYPE":"U","NORAD_CAT_ID":67727,"ELEMENT_SET_NO":999,"REV_AT_EPOCH":426,"BSTAR":-0.018074,"MEAN_MOTION_DOT":-0.01970543,"MEAN_MOTION_DDOT":0},{"OBJECT_NAME":"STARLINK-36757","OBJECT_ID":"2026-026H","EPOCH":"2026-03-03T04:00:01.999584","MEAN_MOTION":15.75148677,"ECCENTRICITY":0.00017,"INCLINATION":97.2838,"RA_OF_ASC_NODE":116.5295,"ARG_OF_PERICENTER":57.1261,"MEAN_ANOMALY":332.4987,"EPHEMERIS_TYPE":0,"CLASSIFICATION_TYPE":"U","NORAD_CAT_ID":67728,"ELEMENT_SET_NO":999,"REV_AT_EPOCH":426,"BSTAR":-0.014929,"MEAN_MOTION_DOT":-0.01931826,"MEAN_MOTION_DDOT":0},{"OBJECT_NAME":"STARLINK-36751","OBJECT_ID":"2026-026J","EPOCH":"2026-03-03T04:00:01.999584","MEAN_MOTION":15.75714104,"ECCENTRICITY":0.0001723,"INCLINATION":97.2839,"RA_OF_ASC_NODE":116.5365,"ARG_OF_PERICENTER":57.2393,"MEAN_ANOMALY":349.1012,"EPHEMERIS_TYPE":0,"CLASSIFICATION_TYPE":"U","NORAD_CAT_ID":67729,"ELEMENT_SET_NO":999,"REV_AT_EPOCH":426,"BSTAR":-0.014534,"MEAN_MOTION_DOT":-0.01928585,"MEAN_MOTION_DDOT":0},{"OBJECT_NAME":"STARLINK-36747","OBJECT_ID":"2026-026K","EPOCH":"2026-03-03T04:00:01.999584","MEAN_MOTION":15.75617724,"ECCENTRICITY":0.000163,"INCLINATION":97.2839,"RA_OF_ASC_NODE":116.5333,"ARG_OF_PERICENTER":58.9323,"MEAN_ANOMALY":338.4094,"EPHEMERIS_TYPE":0,"CLASSIFICATION_TYPE":"U","NORAD_CAT_ID":67730,"ELEMENT_SET_NO":999,"REV_AT_EPOCH":426,"BSTAR":-0.014616,"MEAN_MOTION_DOT":-0.01930778,"MEAN_MOTION_DDOT":0},{"OBJECT_NAME":"STARLINK-36315","OBJECT_ID":"2026-026L","EPOCH":"2026-03-03T04:00:01.999584","MEAN_MOTION":15.75889614,"ECCENTRICITY":0.0001613,"INCLINATION":97.284,"RA_OF_ASC_NODE":116.5393,"ARG_OF_PERICENTER":62.5405,"MEAN_ANOMALY":350.0413,"EPHEMERIS_TYPE":0,"CLASSIFICATION_TYPE":"U","NORAD_CAT_ID":67731,"ELEMENT_SET_NO":999,"REV_AT_EPOCH":426,"BSTAR":-0.014405,"MEAN_MOTION_DOT":-0.0192654,"MEAN_MOTION_DDOT":0},{"OBJECT_NAME":"STARLINK-36260","OBJECT_ID":"2026-026M","EPOCH":"2026-03-03T04:00:01.999584","MEAN_MOTION":15.76272157,"ECCENTRICITY":0.0001786,"INCLINATION":97.2842,"RA_OF_ASC_NODE":116.5422,"ARG_OF_PERICENTER":55.8917,"MEAN_ANOMALY":4.9708,"EPHEMERIS_TYPE":0,"CLASSIFICATION_TYPE":"U","NORAD_CAT_ID":67732,"ELEMENT_SET_NO":999,"REV_AT_EPOCH":426,"BSTAR":-0.014191,"MEAN_MOTION_DOT":-0.01929918,"MEAN_MOTION_DDOT":0},{"OBJECT_NAME":"STARLINK-36746","OBJECT_ID":"2026-026N","EPOCH":"2026-03-03T04:00:01.999584","MEAN_MOTION":15.56086293,"ECCENTRICITY":0.0001931,"INCLINATION":97.2841,"RA_OF_ASC_NODE":116.4416,"ARG_OF_PERICENTER":65.3678,"MEAN_ANOMALY":108.027,"EPHEMERIS_TYPE":0,"CLASSIFICATION_TYPE":"U","NORAD_CAT_ID":67733,"ELEMENT_SET_NO":999,"REV_AT_EPOCH":426,"BSTAR":-0.030635,"MEAN_MOTION_DOT":-0.01887642,"MEAN_MOTION_DDOT":0}]
